{"type": "FeatureCollection", "features": [ {"type": "Feature", "properties": {"norad_id": 30649, "name": "FENGYUN 1C DEB", "group": "fengyun-1c-debris", "lat": 79.61284170791897, "lon": -31.495034851348727, "alt_km": 762.7649615947066, "timestamp": "2025-12-21T07:34:34.794514+00:00", "meta": {"OBJECT_NAME": "FENGYUN 1C DEB", "OBJECT_ID": "1999-025APG", "EPOCH": "2025-12-20T19:56:01.914144", "MEAN_MOTION": 14.29594642, "ECCENTRICITY": 0.00511227, "INCLINATION": 98.8097, "RA_OF_ASC_NODE": 90.2311, "ARG_OF_PERICENTER": 148.4788, "MEAN_ANOMALY": 332.2962, "EPHEMERIS_TYPE": 0, "CLASSIFICATION_TYPE": "U", "NORAD_CAT_ID": 30649, "ELEMENT_SET_NO": 999, "REV_AT_EPOCH": 97179, "BSTAR": 0.0010997342, "MEAN_MOTION_DOT": 2.81e-05, "MEAN_MOTION_DDOT": 0}, "tle": {"line1": "1 30649U 99025APG 25354.83057771  .00002810  00000+0  10997-2 0  9992", "line2": "2 30649  98.8097  90.2311 0051122 148.4788 332.2962 14.29594642971798"}}, "geometry": {"type": "Point", "coordinates": [-31.495034851348727, 79.61284170791897]}}, {"type": "Feature", "properties": {"norad_id": 30650, "name": "FENGYUN 1C DEB", "group": "fengyun-1c-debris", "lat": -26.63990808771705, "lon": 40.821986503548075, "alt_km": 902.3211682522897, "timestamp": "2025-12-21T07:34:34.794523+00:00", "meta": {"OBJECT_NAME": "FENGYUN 1C DEB", "OBJECT_ID": "1999-025APH", "EPOCH": "2025-12-20T01:16:42.233376", "MEAN_MOTION": 14.13973355, "ECCENTRICITY": 0.00722893, "INCLINATION": 99.2039, "RA_OF_ASC_NODE": 34.8574, "ARG_OF_PERICENTER": 169.4969, "MEAN_ANOMALY": 220.8741, "EPHEMERIS_TYPE": 0, "CLASSIFICATION_TYPE": "U", "NORAD_CAT_ID": 30650, "ELEMENT_SET_NO": 999, "REV_AT_EPOCH": 96402, "BSTAR": 0.001156053, "MEAN_MOTION_DOT": 2.204e-05, "MEAN_MOTION_DDOT": 0}, "tle": {"line1": "1 30650U 99025APH 25354.05326659  .00002204  00000+0  11561-2 0  9997", "line2": "2 30650  99.2039  34.8574 0072289 169.4969 220.8741 14.13973355964027"}}, "geometry": {"type": "Point", "coordinates": [40.821986503548075, -26.63990808771705]}}, {"type": "Feature", "properties": {"norad_id": 30652, "name": "FENGYUN 1C DEB", "group": "fengyun-1c-debris", "lat": -25.114276262811476, "lon": -155.94106173057972, "alt_km": 867.8481989807851, "timestamp": "2025-12-21T07:34:34.794532+00:00", "meta": {"OBJECT_NAME": "FENGYUN 1C DEB", "OBJECT_ID": "1999-025APJ", "EPOCH": "2025-12-20T15:48:22.138848", "MEAN_MOTION": 14.07807857, "ECCENTRICITY": 0.0007477, "INCLINATION": 98.7841, "RA_OF_ASC_NODE": 27.5761, "ARG_OF_PERICENTER": 239.8971, "MEAN_ANOMALY": 237.1158, "EPHEMERIS_TYPE": 0, "CLASSIFICATION_TYPE": "U", "NORAD_CAT_ID": 30652, "ELEMENT_SET_NO": 999, "REV_AT_EPOCH": 96805, "BSTAR": -4.0568e-06, "MEAN_MOTION_DOT": -5e-07, "MEAN_MOTION_DDOT": 0}, "tle": {"line1": "1 30652U 99025APJ 25354.65858957 -.00000050  00000+0 -40568-5 0  9997", "line2": "2 30652  98.7841  27.5761 0007477 239.8971 237.1158 14.07807857968059"}}, "geometry": {"type": "Point", "coordinates": [-155.94106173057972, -25.114276262811476]}}, {"type": "Feature", "properties": {"norad_id": 30654, "name": "FENGYUN 1C DEB", "group": "fengyun-1c-debris", "lat": 39.90218463876451, "lon": 106.71534934346776, "alt_km": 821.582506399177, "timestamp": "2025-12-21T07:34:34.794541+00:00", "meta": {"OBJECT_NAME": "FENGYUN 1C DEB", "OBJECT_ID": "1999-025APL", "EPOCH": "2025-12-20T05:30:24.981120", "MEAN_MOTION": 14.17127578, "ECCENTRICITY": 0.0035721, "INCLINATION": 99.2429, "RA_OF_ASC_NODE": 277.761, "ARG_OF_PERICENTER": 75.8834, "MEAN_ANOMALY": 284.6305, "EPHEMERIS_TYPE": 0, "CLASSIFICATION_TYPE": "U", "NORAD_CAT_ID": 30654, "ELEMENT_SET_NO": 999, "REV_AT_EPOCH": 96786, "BSTAR": 0.00081696, "MEAN_MOTION_DOT": 1.609e-05, "MEAN_MOTION_DDOT": 0}, "tle": {"line1": "1 30654U 99025APL 25354.22945580  .00001609  00000+0  81696-3 0  9995", "line2": "2 30654  99.2429 277.7610 0035721  75.8834 284.6305 14.17127578967865"}}, "geometry": {"type": "Point", "coordinates": [106.71534934346776, 39.90218463876451]}}, {"type": "Feature", "properties": {"norad_id": 30656, "name": "FENGYUN 1C DEB", "group": "fengyun-1c-debris", "lat": 76.76443647268887, "lon": 127.47642743615319, "alt_km": 713.0763743142397, "timestamp": "2025-12-21T07:34:34.794550+00:00", "meta": {"OBJECT_NAME": "FENGYUN 1C DEB", "OBJECT_ID": "1999-025APN", "EPOCH": "2025-12-20T17:55:03.452736", "MEAN_MOTION": 14.45447266, "ECCENTRICITY": 0.00301359, "INCLINATION": 99.0177, "RA_OF_ASC_NODE": 169.3405, "ARG_OF_PERICENTER": 62.1564, "MEAN_ANOMALY": 298.2673, "EPHEMERIS_TYPE": 0, "CLASSIFICATION_TYPE": "U", "NORAD_CAT_ID": 30656, "ELEMENT_SET_NO": 999, "REV_AT_EPOCH": 97201, "BSTAR": 0.0015308471, "MEAN_MOTION_DOT": 5.375e-05, "MEAN_MOTION_DDOT": 0}, "tle": {"line1": "1 30656U 99025APN 25354.74656774  .00005375  00000+0  15308-2 0  9998", "line2": "2 30656  99.0177 169.3405 0030135  62.1564 298.2673 14.45447266972018"}}, "geometry": {"type": "Point", "coordinates": [127.47642743615319, 76.76443647268887]}}, {"type": "Feature", "properties": {"norad_id": 30657, "name": "FENGYUN 1C DEB", "group": "fengyun-1c-debris", "lat": -11.304833380692136, "lon": 95.38116478793002, "alt_km": 757.2871003228229, "timestamp": "2025-12-21T07:34:34.794559+00:00", "meta": {"OBJECT_NAME": "FENGYUN 1C DEB", "OBJECT_ID": "1999-025APP", "EPOCH": "2025-12-20T18:53:07.841184", "MEAN_MOTION": 14.38688697, "ECCENTRICITY": 0.00161281, "INCLINATION": 98.8365, "RA_OF_ASC_NODE": 93.0549, "ARG_OF_PERICENTER": 318.6442, "MEAN_ANOMALY": 172.7744, "EPHEMERIS_TYPE": 0, "CLASSIFICATION_TYPE": "U", "NORAD_CAT_ID": 30657, "ELEMENT_SET_NO": 999, "REV_AT_EPOCH": 97348, "BSTAR": 0.0013710624, "MEAN_MOTION_DOT": 4.166e-05, "MEAN_MOTION_DDOT": 0}, "tle": {"line1": "1 30657U 99025APP 25354.78689631  .00004166  00000+0  13711-2 0  9994", "line2": "2 30657  98.8365  93.0549 0016128 318.6442 172.7744 14.38688697973481"}}, "geometry": {"type": "Point", "coordinates": [95.38116478793002, -11.304833380692136]}}, {"type": "Feature", "properties": {"norad_id": 30658, "name": "FENGYUN 1C DEB", "group": "fengyun-1c-debris", "lat": 77.30486675806517, "lon": -14.291685557613748, "alt_km": 1003.9864311728725, "timestamp": "2025-12-21T07:34:34.794568+00:00", "meta": {"OBJECT_NAME": "FENGYUN 1C DEB", "OBJECT_ID": "1999-025APQ", "EPOCH": "2025-12-18T13:23:50.214912", "MEAN_MOTION": 13.87228138, "ECCENTRICITY": 0.01842986, "INCLINATION": 98.4389, "RA_OF_ASC_NODE": 24.4397, "ARG_OF_PERICENTER": 211.7114, "MEAN_ANOMALY": 147.2839, "EPHEMERIS_TYPE": 0, "CLASSIFICATION_TYPE": "U", "NORAD_CAT_ID": 30658, "ELEMENT_SET_NO": 999, "REV_AT_EPOCH": 94765, "BSTAR": 0.001331943, "MEAN_MOTION_DOT": 1.751e-05, "MEAN_MOTION_DDOT": 0}, "tle": {"line1": "1 30658U 99025APQ 25352.55822008  .00001751  00000+0  13319-2 0  9996", "line2": "2 30658  98.4389  24.4397 0184298 211.7114 147.2839 13.87228138947651"}}, "geometry": {"type": "Point", "coordinates": [-14.291685557613748, 77.30486675806517]}}, {"type": "Feature", "properties": {"norad_id": 30660, "name": "FENGYUN 1C DEB", "group": "fengyun-1c-debris", "lat": 32.506324464316336, "lon": 86.76436671339323, "alt_km": 596.485599749949, "timestamp": "2025-12-21T07:34:34.794577+00:00", "meta": {"OBJECT_NAME": "FENGYUN 1C DEB", "OBJECT_ID": "1999-025APS", "EPOCH": "2025-12-20T17:36:32.054976", "MEAN_MOTION": 14.87623121, "ECCENTRICITY": 0.0136524, "INCLINATION": 98.1396, "RA_OF_ASC_NODE": 91.4001, "ARG_OF_PERICENTER": 308.2794, "MEAN_ANOMALY": 208.2902, "EPHEMERIS_TYPE": 0, "CLASSIFICATION_TYPE": "U", "NORAD_CAT_ID": 30660, "ELEMENT_SET_NO": 999, "REV_AT_EPOCH": 903, "BSTAR": 0.00035500666, "MEAN_MOTION_DOT": 3.764e-05, "MEAN_MOTION_DDOT": 0}, "tle": {"line1": "1 30660U 99025APS 25354.73370434  .00003764  00000+0  35501-3 0  9996", "line2": "2 30660  98.1396  91.4001 0136524 308.2794 208.2902 14.87623121  9032"}}, "geometry": {"type": "Point", "coordinates": [86.76436671339323, 32.506324464316336]}}, {"type": "Feature", "properties": {"norad_id": 30661, "name": "FENGYUN 1C DEB", "group": "fengyun-1c-debris", "lat": -13.962330740955982, "lon": -10.755753292791063, "alt_km": 929.1472752690006, "timestamp": "2025-12-21T07:34:34.794586+00:00", "meta": {"OBJECT_NAME": "FENGYUN 1C DEB", "OBJECT_ID": "1999-025APT", "EPOCH": "2025-12-19T10:44:17.431008", "MEAN_MOTION": 14.21146014, "ECCENTRICITY": 0.0144508, "INCLINATION": 99.4871, "RA_OF_ASC_NODE": 169.6213, "ARG_OF_PERICENTER": 26.7747, "MEAN_ANOMALY": 334.0794, "EPHEMERIS_TYPE": 0, "CLASSIFICATION_TYPE": "U", "NORAD_CAT_ID": 30661, "ELEMENT_SET_NO": 999, "REV_AT_EPOCH": 97997, "BSTAR": 9.1614e-05, "MEAN_MOTION_DOT": 1.71e-06, "MEAN_MOTION_DDOT": 0}, "tle": {"line1": "1 30661U 99025APT 25353.44742397  .00000171  00000+0  91614-4 0  9992", "line2": "2 30661  99.4871 169.6213 0144508  26.7747 334.0794 14.21146014979974"}}, "geometry": {"type": "Point", "coordinates": [-10.755753292791063, -13.962330740955982]}}, {"type": "Feature", "properties": {"norad_id": 30662, "name": "FENGYUN 1C DEB", "group": "fengyun-1c-debris", "lat": -76.51627877498437, "lon": 93.49809490230177, "alt_km": 804.5388950360775, "timestamp": "2025-12-21T07:34:34.794595+00:00", "meta": {"OBJECT_NAME": "FENGYUN 1C DEB", "OBJECT_ID": "1999-025APU", "EPOCH": "2025-12-17T02:47:53.975616", "MEAN_MOTION": 14.2238731, "ECCENTRICITY": 0.00333112, "INCLINATION": 99.053, "RA_OF_ASC_NODE": 47.5109, "ARG_OF_PERICENTER": 258.3821, "MEAN_ANOMALY": 131.5027, "EPHEMERIS_TYPE": 0, "CLASSIFICATION_TYPE": "U", "NORAD_CAT_ID": 30662, "ELEMENT_SET_NO": 999, "REV_AT_EPOCH": 96701, "BSTAR": 0.0012023141, "MEAN_MOTION_DOT": 2.645e-05, "MEAN_MOTION_DDOT": 0}, "tle": {"line1": "1 30662U 99025APU 25351.11659694  .00002645  00000+0  12023-2 0  9995", "line2": "2 30662  99.0530  47.5109 0033311 258.3821 131.5027 14.22387310967014"}}, "geometry": {"type": "Point", "coordinates": [93.49809490230177, -76.51627877498437]}}]}